STARLINK-3593           
1 51896U 22022AW  26194.26670273 -.00000120  00000+0  76833-5 0  9997
2 51896  53.1608 153.1156 0001909  73.3176 286.8036 15.33545014242284
STARLINK-3598           
1 51897U 22022AX  26194.00630374 -.00000314  00000+0  18299-5 0  9995
2 51897  53.1621 152.2754 0001120  85.1184 274.9947 15.34391194242221
STARLINK-3597           
1 51898U 22022AY  26194.32574621 -.00006078  00000+0 -16942-3 0  9998
2 51898  53.1539 150.7649 0002894  67.9524 292.1786 15.34296011242327
2022-023A               
1 51946U 22023A   26194.65040089  .00004454  00000+0  19681-3 0  9992
2 51946  63.4827 180.5918 0109965 344.3981  15.3751 15.17964473241737
2022-023B               
1 51947U 22023B   26194.64712921  .00012593  00000+0  54414-3 0  9999
2 51947  63.4830 179.9902 0104076 348.6259  11.2502 15.17987829241739
2022-023C               
1 51948U 22023C   26194.65375000  .00004511  00000+0  20077-3 0  9993
2 51948  63.4906 181.4212 0107161 351.2205   8.7029 15.17958399241730
2022-023D               
1 51949U 22023D   26194.54036068  .00005861  00000+0  24061-3 0  9996
2 51949  63.4477 182.1671 0129500 355.0565   4.9258 15.17955067241712
2022-023E               
1 51950U 22023E   26194.60138115 -.00000022  00000+0  91652-4 0  9997
2 51950  63.4602 244.4658 0162101 348.4119  11.3200 13.56290864225614
2022-023F               
1 51951U 22023F   26194.62796814  .00005617  00000+0  22839-3 0  9990
2 51951  63.4440 183.5965 0132933 341.6171  18.0160 15.17955875241720
STARLINK-3700           
1 51956U 22025A   26194.28089972  .00000307  00000+0  21652-4 0  9993
2 51956  53.1589 149.2966 0001396  83.3175 276.7986 15.31706256240414
STARLINK-3694           
1 51957U 22025B   26194.40720831 -.00000044  00000+0  10345-4 0  9990
2 51957  53.1582 171.9254 0001475  83.9616 276.1553 15.31707690240095
STARLINK-3692           
1 51958U 22025C   26194.27155617  .00000817  00000+0  38086-4 0  9999
2 51958  53.1578 149.2473 0001467  81.1208 278.9960 15.31716186240418
STARLINK-3704           
1 51959U 22025D   26194.40329375  .00000588  00000+0  30725-4 0  9996
2 51959  53.1593 172.5164 0001469  77.6268 282.4898 15.31702787240085
STARLINK-3691           
1 51960U 22025E   26193.93179294 -.00000265  00000+0  32077-5 0  9994
2 51960  53.1593 173.9526 0000968  69.8597 290.2508 15.31704198240022
STARLINK-3697           
1 51962U 22025G   26193.92878809 -.00000033  00000+0  10712-4 0  9997
2 51962  53.1598 161.5808 0001119  79.6865 280.4263 15.31707144240204
STARLINK-3675           
1 51963U 22025H   26194.26690896  .00000854  00000+0  39279-4 0  9993
2 51963  53.1592 149.2692 0001184  80.4202 279.6933 15.31697526240419
STARLINK-3690           
1 51964U 22025J   26194.37156273 -.00001488  00000+0 -36184-4 0  9990
2 51964  53.1593 159.5056 0001229 106.7200 253.3937 15.31697669240274
STARLINK-3696           
1 51965U 22025K   26193.91788436 -.00000454  00000+0 -28451-5 0  9993
2 51965  53.1595 174.5641 0001510  82.5749 277.5424 15.31702796240015
STARLINK-3699           
1 51966U 22025L   26193.97377802  .00000796  00000+0  37400-4 0  9991
2 51966  53.1601 174.0581 0001314  83.8503 276.2649 15.31709741240029
STARLINK-3681           
1 51968U 22025N   26194.29698142 -.00000669  00000+0 -97910-5 0  9996
2 51968  53.1585 159.8544 0001180  90.2890 269.8246 15.31704125240262
STARLINK-3680           
1 51969U 22025P   26194.31097354 -.00000250  00000+0  37011-5 0  9999
2 51969  53.1583 159.8317 0001455  94.8577 265.2591 15.31705531240250
STARLINK-3677           
1 51970U 22025Q   26194.33338662 -.00000056  00000+0  99679-5 0  9995
2 51970  53.1603 172.8709 0001191  91.8097 268.3040 15.31707261240071
STARLINK-3669           
1 51971U 22025R   26194.32497779 -.00000540  00000+0 -56204-5 0  9996
2 51971  53.1584 159.9307 0001599  90.9031 269.2154 15.31703740240265
STARLINK-3671           
1 51972U 22025S   26194.44990070  .00000065  00000+0  13865-4 0  9997
2 51972  53.1605 172.2761 0001351 101.2896 258.8257 15.31702484240096
STARLINK-3679           
1 51973U 22025T   26194.35595617  .00000208  00000+0  18454-4 0  9994
2 51973  53.1595 172.2574 0001305  90.0092 270.1059 15.31703713240081
STARLINK-3672           
1 51974U 22025U   26194.36065516  .00007167  00000+0  24268-3 0  9996
2 51974  53.1620 172.4661 0001550 103.3746 256.7429 15.31673734240075
STARLINK-3674           
1 51975U 22025V   26194.30157983 -.00000057  00000+0  99300-5 0  9994
2 51975  53.1585 159.3644 0001113  87.1430 272.9699 15.31701510240270
STARLINK-3660           
1 51977U 22025X   26194.41692799  .00001027  00000+0  47932-4 0  9997
2 51977  53.1611 172.4609 0001294  81.3946 278.7201 15.29357121240340
STARLINK-3649           
1 51980U 22025AA  26194.32426216  .00000171  00000+0  28840-4 0  9996
2 51980  53.1597 194.8720 0001223  69.9346 290.1777 15.08833580240023
STARLINK-3635           
1 51981U 22025AB  26194.40522595  .00000357  00000+0  40499-4 0  9993
2 51981  53.1593 194.5069 0001257  82.6060 277.5074 15.08839891240036
