OBJECT_NAME,OBJECT_ID,EPOCH,MEAN_MOTION,ECCENTRICITY,INCLINATION,RA_OF_ASC_NODE,ARG_OF_PERICENTER,MEAN_ANOMALY,EPHEMERIS_TYPE,CLASSIFICATION_TYPE,NORAD_CAT_ID,ELEMENT_SET_NO,REV_AT_EPOCH,BSTAR,MEAN_MOTION_DOT,MEAN_MOTION_DDOT
STARLINK-3593,2022-022AW,2026-07-13T06:24:03.115872,15.33545014,.0001909,53.1608,153.1156,73.3176,286.8036,0,U,51896,999,24228,.76833E-5,-.12E-5,0
STARLINK-3598,2022-022AX,2026-07-13T00:09:04.643136,15.34391194,.000112,53.1621,152.2754,85.1184,274.9947,0,U,51897,999,24222,.1829923E-5,-.314E-5,0
STARLINK-3597,2022-022AY,2026-07-13T07:49:04.472544,15.34296011,.00028943,53.1539,150.7649,67.9524,292.1786,0,U,51898,999,24232,-.16942024E-3,-.6078E-4,0
2022-023A,2022-023A,2026-07-13T15:36:34.636896,15.17964473,.01099652,63.4827,180.5918,344.3981,15.3751,0,U,51946,999,24173,.19680946E-3,.4454E-4,0
2022-023B,2022-023B,2026-07-13T15:31:51.963744,15.17987829,.01040761,63.4830,179.9902,348.6259,11.2502,0,U,51947,999,24173,.54414054E-3,.12593E-3,0
2022-023C,2022-023C,2026-07-13T15:41:24.000000,15.17958399,.01071616,63.4906,181.4212,351.2205,8.7029,0,U,51948,999,24173,.20076668E-3,.4511E-4,0
2022-023D,2022-023D,2026-07-13T12:58:07.162752,15.17955067,.01295004,63.4477,182.1671,355.0565,4.9258,0,U,51949,999,24171,.24061321E-3,.5861E-4,0
2022-023E,2022-023E,2026-07-13T14:25:59.331360,13.56290864,.01621013,63.4602,244.4658,348.4119,11.3200,0,U,51950,999,22561,.91652147E-4,-.22E-6,0
2022-023F,2022-023F,2026-07-13T15:04:16.447296,15.17955875,.01329336,63.4440,183.5965,341.6171,18.0160,0,U,51951,999,24172,.22839448E-3,.5617E-4,0
STARLINK-3700,2022-025A,2026-07-13T06:44:29.735808,15.31706256,.0001396,53.1589,149.2966,83.3175,276.7986,0,U,51956,999,24041,.21652E-4,.307E-5,0
STARLINK-3694,2022-025B,2026-07-13T09:46:22.797984,15.31707690,.00014751,53.1582,171.9254,83.9616,276.1553,0,U,51957,999,24009,.10344656E-4,-.44E-6,0
STARLINK-3692,2022-025C,2026-07-13T06:31:02.453088,15.31716186,.0001467,53.1578,149.2473,81.1208,278.9960,0,U,51958,999,24041,.38086E-4,.817E-5,0
STARLINK-3704,2022-025D,2026-07-13T09:40:44.580000,15.31702787,.00014696,53.1593,172.5164,77.6268,282.4898,0,U,51959,999,24008,.30724709E-4,.588E-5,0
STARLINK-3691,2022-025E,2026-07-12T22:21:46.910016,15.31704198,.00009684,53.1593,173.9526,69.8597,290.2508,0,U,51960,999,24002,.3207725E-5,-.265E-5,0
STARLINK-3697,2022-025G,2026-07-12T22:17:27.290976,15.31707144,.00011195,53.1598,161.5808,79.6865,280.4263,0,U,51962,999,24020,.10712261E-4,-.33E-6,0
STARLINK-3675,2022-025H,2026-07-13T06:24:20.934144,15.31697526,.0001184,53.1592,149.2692,80.4202,279.6933,0,U,51963,999,24041,.39279E-4,.854E-5,0
STARLINK-3690,2022-025J,2026-07-13T08:55:03.019872,15.31697669,.00012298,53.1593,159.5056,106.7200,253.3937,0,U,51964,999,24027,-.36184189E-4,-.1488E-4,0
STARLINK-3696,2022-025K,2026-07-12T22:01:45.208704,15.31702796,.00015104,53.1595,174.5641,82.5749,277.5424,0,U,51965,999,24001,-.2845076E-5,-.454E-5,0
STARLINK-3699,2022-025L,2026-07-12T23:22:14.420928,15.31709741,.00013144,53.1601,174.0581,83.8503,276.2649,0,U,51966,999,24002,.37399681E-4,.796E-5,0
STARLINK-3681,2022-025N,2026-07-13T07:07:39.194688,15.31704125,.000118,53.1585,159.8544,90.2890,269.8246,0,U,51968,999,24026,-.9791E-5,-.669E-5,0
STARLINK-3680,2022-025P,2026-07-13T07:27:48.113856,15.31705531,.00014559,53.1583,159.8317,94.8577,265.2591,0,U,51969,999,24025,.3701106E-5,-.25E-5,0
STARLINK-3677,2022-025Q,2026-07-13T08:00:04.603968,15.31707261,.0001191,53.1603,172.8709,91.8097,268.3040,0,U,51970,999,24007,.9967866E-5,-.56E-6,0
STARLINK-3669,2022-025R,2026-07-13T07:47:58.081056,15.31703740,.00015999,53.1584,159.9307,90.9031,269.2154,0,U,51971,999,24026,-.5620385E-5,-.54E-5,0
STARLINK-3671,2022-025S,2026-07-13T10:47:51.420480,15.31702484,.00013514,53.1605,172.2761,101.2896,258.8257,0,U,51972,999,24009,.13864577E-4,.65E-6,0
STARLINK-3679,2022-025T,2026-07-13T08:32:34.613088,15.31703713,.00013054,53.1595,172.2574,90.0092,270.1059,0,U,51973,999,24008,.18453635E-4,.208E-5,0
STARLINK-3672,2022-025U,2026-07-13T08:39:20.605824,15.31673734,.00015507,53.1620,172.4661,103.3746,256.7429,0,U,51974,999,24007,.24267853E-3,.7167E-4,0
STARLINK-3674,2022-025V,2026-07-13T07:14:16.497312,15.31701510,.0001113,53.1585,159.3644,87.1430,272.9699,0,U,51975,999,24027,.9930007E-5,-.57E-6,0
STARLINK-3660,2022-025X,2026-07-13T10:00:22.578336,15.29357121,.00012942,53.1611,172.4609,81.3946,278.7201,0,U,51977,999,24034,.4793237E-4,.1027E-4,0
STARLINK-3649,2022-025AA,2026-07-13T07:46:56.250624,15.08833580,.00012233,53.1597,194.8720,69.9346,290.1777,0,U,51980,999,24002,.28840353E-4,.171E-5,0
STARLINK-3635,2022-025AB,2026-07-13T09:43:31.522080,15.08839891,.00012577,53.1593,194.5069,82.6060,277.5074,0,U,51981,999,24003,.40498592E-4,.357E-5,0
